{"type": "FeatureCollection", "features": [ {"type": "Feature", "properties": {"norad_id": 43262, "name": "GAOFEN-1 04", "group": "resource", "lat": 81.74549650861582, "lon": -56.60706213594353, "alt_km": 632.4454518176108, "timestamp": "2025-12-13T05:42:57.154734+00:00", "meta": {"OBJECT_NAME": "GAOFEN-1 04", "OBJECT_ID": "2018-031D", "EPOCH": "2025-12-12T08:09:28.351872", "MEAN_MOTION": 14.76451296, "ECCENTRICITY": 0.00011003, "INCLINATION": 98.0805, "RA_OF_ASC_NODE": 44.1749, "ARG_OF_PERICENTER": 58.9336, "MEAN_ANOMALY": 301.1981, "EPHEMERIS_TYPE": 0, "CLASSIFICATION_TYPE": "U", "NORAD_CAT_ID": 43262, "ELEMENT_SET_NO": 999, "REV_AT_EPOCH": 41511, "BSTAR": 0.00034756002, "MEAN_MOTION_DOT": 2.367e-05, "MEAN_MOTION_DDOT": 0}, "tle": {"line1": "1 43262U 18031D   25346.33991148  .00002367  00000+0  34756-3 0  9993", "line2": "2 43262  98.0805  44.1749 0001100  58.9336 301.1981 14.76451296415114"}}, "geometry": {"type": "Point", "coordinates": [-56.60706213594353, 81.74549650861582]}}, {"type": "Feature", "properties": {"norad_id": 43437, "name": "SENTINEL-3B", "group": "resource", "lat": 10.478700941014903, "lon": -125.97502875398591, "alt_km": 803.722816283489, "timestamp": "2025-12-13T05:42:57.154744+00:00", "meta": {"OBJECT_NAME": "SENTINEL-3B", "OBJECT_ID": "2018-039A", "EPOCH": "2025-12-11T10:50:50.552736", "MEAN_MOTION": 14.26742264, "ECCENTRICITY": 0.00015576, "INCLINATION": 98.6268, "RA_OF_ASC_NODE": 50.6556, "ARG_OF_PERICENTER": 104.2946, "MEAN_ANOMALY": 255.8408, "EPHEMERIS_TYPE": 0, "CLASSIFICATION_TYPE": "U", "NORAD_CAT_ID": 43437, "ELEMENT_SET_NO": 999, "REV_AT_EPOCH": 39735, "BSTAR": 0.00012251697, "MEAN_MOTION_DOT": 2.53e-06, "MEAN_MOTION_DDOT": 0}, "tle": {"line1": "1 43437U 18039A   25345.45197399  .00000253  00000+0  12252-3 0  9992", "line2": "2 43437  98.6268  50.6556 0001557 104.2946 255.8408 14.26742264397350"}}, "geometry": {"type": "Point", "coordinates": [-125.97502875398591, 10.478700941014903]}}, {"type": "Feature", "properties": {"norad_id": 43461, "name": "GAOFEN-5 01", "group": "resource", "lat": -38.23310020522106, "lon": 123.50219963352023, "alt_km": 698.6263045277783, "timestamp": "2025-12-13T05:42:57.154755+00:00", "meta": {"OBJECT_NAME": "GAOFEN-5 01", "OBJECT_ID": "2018-043A", "EPOCH": "2025-12-12T04:03:09.333792", "MEAN_MOTION": 14.60409081, "ECCENTRICITY": 9.965e-05, "INCLINATION": 98.4325, "RA_OF_ASC_NODE": 309.1261, "ARG_OF_PERICENTER": 342.6516, "MEAN_ANOMALY": 17.4649, "EPHEMERIS_TYPE": 0, "CLASSIFICATION_TYPE": "U", "NORAD_CAT_ID": 43461, "ELEMENT_SET_NO": 999, "REV_AT_EPOCH": 40439, "BSTAR": 0.00017210659, "MEAN_MOTION_DOT": 7.84e-06, "MEAN_MOTION_DDOT": 0}, "tle": {"line1": "1 43461U 18043A   25346.16885803  .00000784  00000+0  17211-3 0  9996", "line2": "2 43461  98.4325 309.1261 0000996 342.6516  17.4649 14.60409081404398"}}, "geometry": {"type": "Point", "coordinates": [123.50219963352023, -38.23310020522106]}}, {"type": "Feature", "properties": {"norad_id": 43484, "name": "GAOFEN-6", "group": "resource", "lat": -62.05445732419219, "lon": -143.4923121987993, "alt_km": 656.6557037328012, "timestamp": "2025-12-13T05:42:57.154765+00:00", "meta": {"OBJECT_NAME": "GAOFEN-6", "OBJECT_ID": "2018-048A", "EPOCH": "2025-12-12T07:28:34.203936", "MEAN_MOTION": 14.76566118, "ECCENTRICITY": 0.00132427, "INCLINATION": 97.8028, "RA_OF_ASC_NODE": 50.5925, "ARG_OF_PERICENTER": 64.9675, "MEAN_ANOMALY": 295.2909, "EPHEMERIS_TYPE": 0, "CLASSIFICATION_TYPE": "U", "NORAD_CAT_ID": 43484, "ELEMENT_SET_NO": 999, "REV_AT_EPOCH": 40581, "BSTAR": 0.00023171045, "MEAN_MOTION_DOT": 1.569e-05, "MEAN_MOTION_DDOT": 0}, "tle": {"line1": "1 43484U 18048A   25346.31150699  .00001569  00000+0  23171-3 0  9995", "line2": "2 43484  97.8028  50.5925 0013242  64.9675 295.2909 14.76566118405813"}}, "geometry": {"type": "Point", "coordinates": [-143.4923121987993, -62.05445732419219]}}, {"type": "Feature", "properties": {"norad_id": 43585, "name": "GAOFEN-11 01", "group": "resource", "lat": 0.10129806731738895, "lon": -129.81929701920527, "alt_km": 423.92991005162276, "timestamp": "2025-12-13T05:42:57.154776+00:00", "meta": {"OBJECT_NAME": "GAOFEN-11 01", "OBJECT_ID": "2018-063A", "EPOCH": "2025-12-12T07:14:22.619616", "MEAN_MOTION": 15.49209977, "ECCENTRICITY": 0.00042463, "INCLINATION": 97.1561, "RA_OF_ASC_NODE": 49.2392, "ARG_OF_PERICENTER": 315.2823, "MEAN_ANOMALY": 44.8086, "EPHEMERIS_TYPE": 0, "CLASSIFICATION_TYPE": "U", "NORAD_CAT_ID": 43585, "ELEMENT_SET_NO": 999, "REV_AT_EPOCH": 41135, "BSTAR": 0.00054980553, "MEAN_MOTION_DOT": 0.00029958, "MEAN_MOTION_DDOT": 0}, "tle": {"line1": "1 43585U 18063A   25346.30165069  .00029958  00000+0  54981-3 0  9995", "line2": "2 43585  97.1561  49.2392 0004246 315.2823  44.8086 15.49209977411352"}}, "geometry": {"type": "Point", "coordinates": [-129.81929701920527, 0.10129806731738895]}}, {"type": "Feature", "properties": {"norad_id": 43613, "name": "ICESAT-2", "group": "resource", "lat": -58.72185468974748, "lon": 57.567010625394516, "alt_km": 487.85171968700706, "timestamp": "2025-12-13T05:42:57.154787+00:00", "meta": {"OBJECT_NAME": "ICESAT-2", "OBJECT_ID": "2018-070A", "EPOCH": "2025-12-12T05:06:14.846112", "MEAN_MOTION": 15.28375704, "ECCENTRICITY": 0.00027398, "INCLINATION": 92.0043, "RA_OF_ASC_NODE": 240.5952, "ARG_OF_PERICENTER": 151.1357, "MEAN_ANOMALY": 209.0044, "EPHEMERIS_TYPE": 0, "CLASSIFICATION_TYPE": "U", "NORAD_CAT_ID": 43613, "ELEMENT_SET_NO": 999, "REV_AT_EPOCH": 40390, "BSTAR": 0.0006894064, "MEAN_MOTION_DOT": 0.00019062, "MEAN_MOTION_DDOT": 0}, "tle": {"line1": "1 43613U 18070A   25346.21267183  .00019062  00000+0  68941-3 0  9991", "line2": "2 43613  92.0043 240.5952 0002739 151.1357 209.0044 15.28375704403905"}}, "geometry": {"type": "Point", "coordinates": [57.567010625394516, -58.72185468974748]}}, {"type": "Feature", "properties": {"norad_id": 43719, "name": "HYSIS", "group": "resource", "lat": -75.57192710854525, "lon": 83.39269821640818, "alt_km": 641.5606649963775, "timestamp": "2025-12-13T05:42:57.154797+00:00", "meta": {"OBJECT_NAME": "HYSIS", "OBJECT_ID": "2018-096A", "EPOCH": "2025-12-12T07:19:50.757312", "MEAN_MOTION": 14.78645012, "ECCENTRICITY": 0.00013436, "INCLINATION": 98.0093, "RA_OF_ASC_NODE": 49.2847, "ARG_OF_PERICENTER": 58.454, "MEAN_ANOMALY": 301.6802, "EPHEMERIS_TYPE": 0, "CLASSIFICATION_TYPE": "U", "NORAD_CAT_ID": 43719, "ELEMENT_SET_NO": 999, "REV_AT_EPOCH": 37980, "BSTAR": 0.00034670038, "MEAN_MOTION_DOT": 2.488e-05, "MEAN_MOTION_DDOT": 0}, "tle": {"line1": "1 43719U 18096A   25346.30544858  .00002488  00000+0  34670-3 0  9999", "line2": "2 43719  98.0093  49.2847 0001343  58.4540 301.6802 14.78645012379801"}}, "geometry": {"type": "Point", "coordinates": [83.39269821640818, -75.57192710854525]}}, {"type": "Feature", "properties": {"norad_id": 43783, "name": "KAZSTSAT", "group": "resource", "lat": -15.268769494731725, "lon": -159.64664425987246, "alt_km": 576.5498912390885, "timestamp": "2025-12-13T05:42:57.154813+00:00", "meta": {"OBJECT_NAME": "KAZSTSAT", "OBJECT_ID": "2018-099AB", "EPOCH": "2025-12-12T01:37:06.339936", "MEAN_MOTION": 14.99350068, "ECCENTRICITY": 0.00059257, "INCLINATION": 97.4559, "RA_OF_ASC_NODE": 21.2815, "ARG_OF_PERICENTER": 333.101, "MEAN_ANOMALY": 26.9906, "EPHEMERIS_TYPE": 0, "CLASSIFICATION_TYPE": "U", "NORAD_CAT_ID": 43783, "ELEMENT_SET_NO": 999, "REV_AT_EPOCH": 38326, "BSTAR": 0.00018865051, "MEAN_MOTION_DOT": 2.251e-05, "MEAN_MOTION_DDOT": 0}, "tle": {"line1": "1 43783U 18099AB  25346.06743449  .00002251  00000+0  18865-3 0  9999", "line2": "2 43783  97.4559  21.2815 0005925 333.1010  26.9906 14.99350068383266"}}, "geometry": {"type": "Point", "coordinates": [-159.64664425987246, -15.268769494731725]}}, {"type": "Feature", "properties": {"norad_id": 43831, "name": "SAUDISAT 5A", "group": "resource", "lat": -63.98524354803842, "lon": 62.723785024322574, "alt_km": 502.13504638046743, "timestamp": "2025-12-13T05:42:57.154824+00:00", "meta": {"OBJECT_NAME": "SAUDISAT 5A", "OBJECT_ID": "2018-102A", "EPOCH": "2025-12-12T07:57:46.813248", "MEAN_MOTION": 15.25649776, "ECCENTRICITY": 0.0011751, "INCLINATION": 97.3353, "RA_OF_ASC_NODE": 46.5305, "ARG_OF_PERICENTER": 77.5705, "MEAN_ANOMALY": 282.6847, "EPHEMERIS_TYPE": 0, "CLASSIFICATION_TYPE": "U", "NORAD_CAT_ID": 43831, "ELEMENT_SET_NO": 999, "REV_AT_EPOCH": 38716, "BSTAR": 0.00038967361, "MEAN_MOTION_DOT": 9.866e-05, "MEAN_MOTION_DDOT": 0}, "tle": {"line1": "1 43831U 18102A   25346.33179182  .00009866  00000+0  38967-3 0  9999", "line2": "2 43831  97.3353  46.5305 0011751  77.5705 282.6847 15.25649776387164"}}, "geometry": {"type": "Point", "coordinates": [62.723785024322574, -63.98524354803842]}}, {"type": "Feature", "properties": {"norad_id": 43833, "name": "SAUDISAT 5B", "group": "resource", "lat": -12.117663233883627, "lon": 51.745870346008374, "alt_km": 492.0575226800929, "timestamp": "2025-12-13T05:42:57.154835+00:00", "meta": {"OBJECT_NAME": "SAUDISAT 5B", "OBJECT_ID": "2018-102C", "EPOCH": "2025-12-12T07:44:12.959808", "MEAN_MOTION": 15.26002585, "ECCENTRICITY": 0.00124723, "INCLINATION": 97.3448, "RA_OF_ASC_NODE": 49.2591, "ARG_OF_PERICENTER": 79.9125, "MEAN_ANOMALY": 280.352, "EPHEMERIS_TYPE": 0, "CLASSIFICATION_TYPE": "U", "NORAD_CAT_ID": 43833, "ELEMENT_SET_NO": 999, "REV_AT_EPOCH": 38727, "BSTAR": 0.00038647746, "MEAN_MOTION_DOT": 9.892e-05, "MEAN_MOTION_DDOT": 0}, "tle": {"line1": "1 43833U 18102C   25346.32237222  .00009892  00000+0  38648-3 0  9995", "line2": "2 43833  97.3448  49.2591 0012472  79.9125 280.3520 15.26002585387278"}}, "geometry": {"type": "Point", "coordinates": [51.745870346008374, -12.117663233883627]}}]}